{
    "links": {
        "self": "http://www.neowsapp.com/rest/v1/neo/3295782?api_key=iIulBulltgU6a56xZRHN4H3l9WmuAYTsLGpBGhQ2"
    },
    "id": "3295782",
    "neo_reference_id": "3295782",
    "name": "(2005 UF)",
    "designation": "2005 UF",
    "nasa_jpl_url": "http://ssd.jpl.nasa.gov/sbdb.cgi?sstr=3295782",
    "absolute_magnitude_h": 26.1,
    "estimated_diameter": {
        "kilometers": {
            "estimated_diameter_min": 0.0160160338,
            "estimated_diameter_max": 0.0358129403
        },
        "meters": {
            "estimated_diameter_min": 16.0160337979,
            "estimated_diameter_max": 35.8129403019
        },
        "miles": {
            "estimated_diameter_min": 0.0099518989,
            "estimated_diameter_max": 0.0222531225
        },
        "feet": {
            "estimated_diameter_min": 52.5460443254,
            "estimated_diameter_max": 117.4965270602
        }
    },
    "is_potentially_hazardous_asteroid": false,
    "close_approach_data": [
        {
            "close_approach_date": "1935-10-04",
            "close_approach_date_full": "1935-Oct-04 01:58",
            "epoch_date_close_approach": -1080684120000,
            "relative_velocity": {
                "kilometers_per_second": "22.2259749615",
                "kilometers_per_hour": "80013.5098614576",
                "miles_per_hour": "49717.2833914151"
            },
            "miss_distance": {
                "astronomical": "0.3218702879",
                "lunar": "125.2075419931",
                "kilometers": "48151109.486126773",
                "miles": "29919712.0391965474"
            },
            "orbiting_body": "Earth"
        },
        {
            "close_approach_date": "1938-03-13",
            "close_approach_date_full": "1938-Mar-13 22:37",
            "epoch_date_close_approach": -1003627380000,
            "relative_velocity": {
                "kilometers_per_second": "19.9356693957",
                "kilometers_per_hour": "71768.4098244952",
                "miles_per_hour": "44594.0988712259"
            },
            "miss_distance": {
                "astronomical": "0.2654444585",
                "lunar": "103.2578943565",
                "kilometers": "39709925.594903395",
                "miles": "24674603.588101051"
            },
            "orbiting_body": "Earth"
        },
        {
            "close_approach_date": "2005-10-24",
            "close_approach_date_full": "2005-Oct-24 03:25",
            "epoch_date_close_approach": 1130124300000,
            "relative_velocity": {
                "kilometers_per_second": "12.2775399239",
                "kilometers_per_hour": "44199.1437259507",
                "miles_per_hour": "27463.6290557164"
            },
            "miss_distance": {
                "astronomical": "0.0076225393",
                "lunar": "2.9651677877",
                "kilometers": "1140315.643271291",
                "miles": "708559.2843981758"
            },
            "orbiting_body": "Moon"
        },
        {
            "close_approach_date": "2005-10-24",
            "close_approach_date_full": "2005-Oct-24 03:31",
            "epoch_date_close_approach": 1130124660000,
            "relative_velocity": {
                "kilometers_per_second": "13.2004002948",
                "kilometers_per_hour": "47521.4410614082",
                "miles_per_hour": "29527.9754195178"
            },
            "miss_distance": {
                "astronomical": "0.0100176579",
                "lunar": "3.8968689231",
                "kilometers": "1498620.284228673",
                "miles": "931199.4643267674"
            },
            "orbiting_body": "Earth"
        },
        {
            "close_approach_date": "2008-03-25",
            "close_approach_date_full": "2008-Mar-25 03:35",
            "epoch_date_close_approach": 1206416100000,
            "relative_velocity": {
                "kilometers_per_second": "25.9572020977",
                "kilometers_per_hour": "93445.9275519",
                "miles_per_hour": "58063.665372457"
            },
            "miss_distance": {
                "astronomical": "0.4587089059",
                "lunar": "178.4377643951",
                "kilometers": "68621875.272670433",
                "miles": "42639656.0673126554"
            },
            "orbiting_body": "Earth"
        }
    ],
    "orbital_data": {
        "orbit_id": "6",
        "orbit_determination_date": "2017-04-06 09:10:12",
        "first_observation_date": "2005-10-22",
        "last_observation_date": "2005-10-23",
        "data_arc_in_days": 1,
        "observations_used": 36,
        "orbit_uncertainty": "7",
        "minimum_orbit_intersection": ".00469783",
        "jupiter_tisserand_invariant": "4.065",
        "epoch_osculation": "2459000.5",
        "eccentricity": ".5159934498900809",
        "semi_major_axis": "1.678750195136195",
        "inclination": "7.285287624731007",
        "ascending_node_longitude": "209.7320582862766",
        "orbital_period": "794.4700707200921",
        "perihelion_distance": ".8125260904442232",
        "perihelion_argument": "244.611577110038",
        "aphelion_distance": "2.544974299828167",
        "perihelion_time": "2459269.950465023681",
        "mean_anomaly": "237.9033081502942",
        "mean_motion": ".4531322365280583",
        "equinox": "J2000",
        "orbit_class": {
            "orbit_class_type": "APO",
            "orbit_class_description": "Near-Earth asteroid orbits which cross the Earth’s orbit similar to that of 1862 Apollo",
            "orbit_class_range": "a (semi-major axis) > 1.0 AU; q (perihelion) < 1.017 AU"
        }
    },
    "is_sentry_object": false
}